{"type":"FeatureCollection","features":[{"type":"Feature","geometry":{"type":"Point","coordinates":[-117.16754065135382,46.69733519908713]},"id":"globalwatershedpoint","properties":{}},{"type":"Feature","geometry":{"type":"Polygon","coordinates":[[[-117.17595163230978,46.696708989670896],[-117.175570469979,46.69676884169812],[-117.17574320310801,46.697297133086344],[-117.17536203718379,46.697356984643385],[-117.17544840333719,46.69762113086948],[-117.17506723526985,46.69768098166729],[-117.17515360066572,46.697945128344465],[-117.17439125955194,46.6980648273731],[-117.17456398662063,46.69859312236968],[-117.17380163693414,46.69871281836113],[-117.17388799860692,46.69897696668066],[-117.17350682127406,46.69903681339286],[-117.1735931821892,46.69930096216346],[-117.1728308225443,46.69942065302088],[-117.17291718125131,46.699684802531706],[-117.17215481593442,46.69980448977363],[-117.1720684601283,46.69954033968471],[-117.17130609494133,46.699660022154895],[-117.17121974272891,46.699395871649884],[-117.17083856054678,46.69945571102335],[-117.17075221047757,46.699191560391306],[-117.16998984693619,46.69931123541484],[-117.16990350046059,46.69904708436681],[-117.16875995430492,46.699226588171925],[-117.16815557882975,46.69737752930384],[-117.16739323156932,46.697497189219185],[-117.167306897887,46.697233038022446],[-117.16768807041306,46.69717320887798],[-117.16751540222525,46.6966449075485],[-117.16789657115793,46.69658507793353],[-117.16746490555593,46.69526432888933],[-117.16822722683999,46.695144669404065],[-117.16831356147597,46.69540881831109],[-117.1690758828905,46.69528915405439],[-117.16916222111973,46.69555330254541],[-117.1706868614391,46.695313960295934],[-117.17077320616217,46.69557810779295],[-117.17191668348009,46.69539858923126],[-117.17200303324671,46.695662736023166],[-117.17238419241768,46.69560289411695],[-117.17247054432727,46.69586704078181],[-117.17285170425583,46.69580719753818],[-117.1729380583084,46.69607134407588],[-117.17446269689675,46.69583195946194],[-117.17454905744317,46.69609610500547],[-117.17569253346142,46.69591655467038],[-117.17595163230978,46.696708989670896]]]},"id":"globalwatershed","properties":{}}],"bbox":[-117.17595163230978,46.695144669404065,-117.167306897887,46.69980448977363]}